STARLINK-32593          
1 61974U 24210R   26081.75684279  .00028136  00000+0  10281-2 0  9994
2 61974  42.9987 106.4357 0000692 322.3733  37.7070 15.27578881 76878
STARLINK-32586          
1 61975U 24210S   26082.12089286  .00022438  00000+0  82187-3 0  9998
2 61975  43.0027 104.0065 0001545 241.8451 118.2245 15.27602707 76937
STARLINK-32611          
1 61976U 24210T   26082.11704002  .00044385  00000+0  16123-2 0  9999
2 61976  43.0030 103.9775 0001025 249.3280 110.7462 15.27589303 76938
STARLINK-32607          
1 61977U 24210U   26082.13116429  .00034851  00000+0  12686-2 0  9999
2 61977  42.9992 104.0794 0001747 241.0012 119.0665 15.27617507 76979
STARLINK-32606          
1 61978U 24210V   26081.77467865  .00028663  00000+0  10471-2 0  9996
2 61978  43.0044 105.7039 0002452 262.6899  97.3674 15.27579093 76881
STARLINK-32578          
1 61979U 24210W   26081.77597408  .00033722  00000+0  12293-2 0  9990
2 61979  43.0034 105.7196 0000543 286.3441  73.7351 15.27580117 76924
STARLINK-32517          
1 61980U 24210X   26081.75427165  .00027815  00000+0  10166-2 0  9995
2 61980  42.9976 106.4140 0000961 274.0514  86.0228 15.27578138 76824
STARLINK-32522          
1 61981U 24210Y   26081.78624653  .00020631  00000+0  75727-3 0  9994
2 61981  43.0047 105.7957 0001606 268.4762  91.5905 15.27574546 76881
STARLINK-32560          
1 61982U 24210Z   26081.77211568  .00025874  00000+0  94663-3 0  9995
2 61982  42.9998 105.6920 0000858 274.6685  85.4069 15.27574947 76883
STARLINK-11433 [DTC]    
1 62008U 24213A   26081.90836078  .00228168  00000+0  18370-2 0  9993
2 62008  53.1572 335.9253 0001017  86.0875 274.0259 15.69708279 76998
STARLINK-11262 [DTC]    
1 62009U 24213B   26082.26592546  .00195768  00000+0  15770-2 0  9993
2 62009  53.1567 334.6192 0000959  49.7980 310.3122 15.69800277 77049
STARLINK-11326 [DTC]    
1 62010U 24213C   26081.92797807  .00158531  00000+0  12850-2 0  9997
2 62010  53.1573 336.0548 0001641 129.7575 230.3588 15.69775425 76993
STARLINK-11330 [DTC]    
1 62011U 24213D   26082.00634925  .00177086  00000+0  14328-2 0  9997
2 62011  53.1571 335.8410 0001497  55.0223 305.0935 15.69756770 77008
STARLINK-11363 [DTC]    
1 62012U 24213E   26082.10917444  .00323642  00000+0  25583-2 0  9995
2 62012  53.1567 335.0505 0000937  68.7477 291.3641 15.69851183 77028
STARLINK-11377 [DTC]    
1 62013U 24213F   26082.23157806  .00187116  00000+0  15091-2 0  9995
2 62013  53.1566 334.3946 0001356  58.8605 301.2546 15.69799393 77049
STARLINK-11385 [DTC]    
1 62014U 24213G   26082.25611795  .00285447  00000+0  22642-2 0  9996
2 62014  53.1571 334.5529 0001882  51.3618 308.7568 15.69886330 77045
