[{"OBJECT_NAME":"STARLINK-32593","OBJECT_ID":"2024-210R","EPOCH":"2026-03-22T18:09:51.217056","MEAN_MOTION":15.27578881,"ECCENTRICITY":6.923e-5,"INCLINATION":42.9987,"RA_OF_ASC_NODE":106.4357,"ARG_OF_PERICENTER":322.3733,"MEAN_ANOMALY":37.707,"EPHEMERIS_TYPE":0,"CLASSIFICATION_TYPE":"U","NORAD_CAT_ID":61974,"ELEMENT_SET_NO":999,"REV_AT_EPOCH":7687,"BSTAR":0.0010280931,"MEAN_MOTION_DOT":0.00028136,"MEAN_MOTION_DDOT":0},{"OBJECT_NAME":"STARLINK-32586","OBJECT_ID":"2024-210S","EPOCH":"2026-03-23T02:54:05.143104","MEAN_MOTION":15.27602707,"ECCENTRICITY":0.0001545,"INCLINATION":43.0027,"RA_OF_ASC_NODE":104.0065,"ARG_OF_PERICENTER":241.8451,"MEAN_ANOMALY":118.2245,"EPHEMERIS_TYPE":0,"CLASSIFICATION_TYPE":"U","NORAD_CAT_ID":61975,"ELEMENT_SET_NO":999,"REV_AT_EPOCH":7693,"BSTAR":0.00082186956,"MEAN_MOTION_DOT":0.00022438,"MEAN_MOTION_DDOT":0},{"OBJECT_NAME":"STARLINK-32611","OBJECT_ID":"2024-210T","EPOCH":"2026-03-23T02:48:32.257728","MEAN_MOTION":15.27589303,"ECCENTRICITY":0.00010252,"INCLINATION":43.003,"RA_OF_ASC_NODE":103.9775,"ARG_OF_PERICENTER":249.328,"MEAN_ANOMALY":110.7462,"EPHEMERIS_TYPE":0,"CLASSIFICATION_TYPE":"U","NORAD_CAT_ID":61976,"ELEMENT_SET_NO":999,"REV_AT_EPOCH":7693,"BSTAR":0.0016123046,"MEAN_MOTION_DOT":0.00044385,"MEAN_MOTION_DDOT":0},{"OBJECT_NAME":"STARLINK-32607","OBJECT_ID":"2024-210U","EPOCH":"2026-03-23T03:08:52.594656","MEAN_MOTION":15.27617507,"ECCENTRICITY":0.00017472,"INCLINATION":42.9992,"RA_OF_ASC_NODE":104.0794,"ARG_OF_PERICENTER":241.0012,"MEAN_ANOMALY":119.0665,"EPHEMERIS_TYPE":0,"CLASSIFICATION_TYPE":"U","NORAD_CAT_ID":61977,"ELEMENT_SET_NO":999,"REV_AT_EPOCH":7697,"BSTAR":0.0012685568,"MEAN_MOTION_DOT":0.00034851,"MEAN_MOTION_DDOT":0},{"OBJECT_NAME":"STARLINK-32606","OBJECT_ID":"2024-210V","EPOCH":"2026-03-22T18:35:32.235360","MEAN_MOTION":15.27579093,"ECCENTRICITY":0.00024522,"INCLINATION":43.0044,"RA_OF_ASC_NODE":105.7039,"ARG_OF_PERICENTER":262.6899,"MEAN_ANOMALY":97.3674,"EPHEMERIS_TYPE":0,"CLASSIFICATION_TYPE":"U","NORAD_CAT_ID":61978,"ELEMENT_SET_NO":999,"REV_AT_EPOCH":7688,"BSTAR":0.0010470557,"MEAN_MOTION_DOT":0.00028663,"MEAN_MOTION_DDOT":0},{"OBJECT_NAME":"STARLINK-32578","OBJECT_ID":"2024-210W","EPOCH":"2026-03-22T18:37:24.160512","MEAN_MOTION":15.27580117,"ECCENTRICITY":5.431e-5,"INCLINATION":43.0034,"RA_OF_ASC_NODE":105.7196,"ARG_OF_PERICENTER":286.3441,"MEAN_ANOMALY":73.7351,"EPHEMERIS_TYPE":0,"CLASSIFICATION_TYPE":"U","NORAD_CAT_ID":61979,"ELEMENT_SET_NO":999,"REV_AT_EPOCH":7692,"BSTAR":0.0012293494,"MEAN_MOTION_DOT":0.00033722,"MEAN_MOTION_DDOT":0},{"OBJECT_NAME":"STARLINK-32517","OBJECT_ID":"2024-210X","EPOCH":"2026-03-22T18:06:09.070560","MEAN_MOTION":15.27578138,"ECCENTRICITY":9.615e-5,"INCLINATION":42.9976,"RA_OF_ASC_NODE":106.414,"ARG_OF_PERICENTER":274.0514,"MEAN_ANOMALY":86.0228,"EPHEMERIS_TYPE":0,"CLASSIFICATION_TYPE":"U","NORAD_CAT_ID":61980,"ELEMENT_SET_NO":999,"REV_AT_EPOCH":7682,"BSTAR":0.001016557,"MEAN_MOTION_DOT":0.00027815,"MEAN_MOTION_DDOT":0},{"OBJECT_NAME":"STARLINK-32522","OBJECT_ID":"2024-210Y","EPOCH":"2026-03-22T18:52:11.700192","MEAN_MOTION":15.27574546,"ECCENTRICITY":0.00016064,"INCLINATION":43.0047,"RA_OF_ASC_NODE":105.7957,"ARG_OF_PERICENTER":268.4762,"MEAN_ANOMALY":91.5905,"EPHEMERIS_TYPE":0,"CLASSIFICATION_TYPE":"U","NORAD_CAT_ID":61981,"ELEMENT_SET_NO":999,"REV_AT_EPOCH":7688,"BSTAR":0.00075726866,"MEAN_MOTION_DOT":0.00020631,"MEAN_MOTION_DDOT":0},{"OBJECT_NAME":"STARLINK-32560","OBJECT_ID":"2024-210Z","EPOCH":"2026-03-22T18:31:50.794752","MEAN_MOTION":15.27574947,"ECCENTRICITY":8.582e-5,"INCLINATION":42.9998,"RA_OF_ASC_NODE":105.692,"ARG_OF_PERICENTER":274.6685,"MEAN_ANOMALY":85.4069,"EPHEMERIS_TYPE":0,"CLASSIFICATION_TYPE":"U","NORAD_CAT_ID":61982,"ELEMENT_SET_NO":999,"REV_AT_EPOCH":7688,"BSTAR":0.00094663244,"MEAN_MOTION_DOT":0.00025874,"MEAN_MOTION_DDOT":0},{"OBJECT_NAME":"STARLINK-11433 [DTC]","OBJECT_ID":"2024-213A","EPOCH":"2026-03-22T21:48:02.371392","MEAN_MOTION":15.69708279,"ECCENTRICITY":0.00010173,"INCLINATION":53.1572,"RA_OF_ASC_NODE":335.9253,"ARG_OF_PERICENTER":86.0875,"MEAN_ANOMALY":274.0259,"EPHEMERIS_TYPE":0,"CLASSIFICATION_TYPE":"U","NORAD_CAT_ID":62008,"ELEMENT_SET_NO":999,"REV_AT_EPOCH":7699,"BSTAR":0.0018369614,"MEAN_MOTION_DOT":0.00228168,"MEAN_MOTION_DDOT":0},{"OBJECT_NAME":"STARLINK-11262 [DTC]","OBJECT_ID":"2024-213B","EPOCH":"2026-03-23T06:22:55.959744","MEAN_MOTION":15.69800277,"ECCENTRICITY":9.598e-5,"INCLINATION":53.1567,"RA_OF_ASC_NODE":334.6192,"ARG_OF_PERICENTER":49.798,"MEAN_ANOMALY":310.3122,"EPHEMERIS_TYPE":0,"CLASSIFICATION_TYPE":"U","NORAD_CAT_ID":62009,"ELEMENT_SET_NO":999,"REV_AT_EPOCH":7704,"BSTAR":0.0015769881,"MEAN_MOTION_DOT":0.00195768,"MEAN_MOTION_DDOT":0},{"OBJECT_NAME":"STARLINK-11326 [DTC]","OBJECT_ID":"2024-213C","EPOCH":"2026-03-22T22:16:17.305248","MEAN_MOTION":15.69775425,"ECCENTRICITY":0.00016419,"INCLINATION":53.1573,"RA_OF_ASC_NODE":336.0548,"ARG_OF_PERICENTER":129.7575,"MEAN_ANOMALY":230.3588,"EPHEMERIS_TYPE":0,"CLASSIFICATION_TYPE":"U","NORAD_CAT_ID":62010,"ELEMENT_SET_NO":999,"REV_AT_EPOCH":7699,"BSTAR":0.0012850327,"MEAN_MOTION_DOT":0.00158531,"MEAN_MOTION_DDOT":0},{"OBJECT_NAME":"STARLINK-11330 [DTC]","OBJECT_ID":"2024-213D","EPOCH":"2026-03-23T00:09:08.575200","MEAN_MOTION":15.6975677,"ECCENTRICITY":0.00014971,"INCLINATION":53.1571,"RA_OF_ASC_NODE":335.841,"ARG_OF_PERICENTER":55.0223,"MEAN_ANOMALY":305.0935,"EPHEMERIS_TYPE":0,"CLASSIFICATION_TYPE":"U","NORAD_CAT_ID":62011,"ELEMENT_SET_NO":999,"REV_AT_EPOCH":7700,"BSTAR":0.001432764,"MEAN_MOTION_DOT":0.00177086,"MEAN_MOTION_DDOT":0},{"OBJECT_NAME":"STARLINK-11363 [DTC]","OBJECT_ID":"2024-213E","EPOCH":"2026-03-23T02:37:12.671616","MEAN_MOTION":15.69851183,"ECCENTRICITY":9.378e-5,"INCLINATION":53.1567,"RA_OF_ASC_NODE":335.0505,"ARG_OF_PERICENTER":68.7477,"MEAN_ANOMALY":291.3641,"EPHEMERIS_TYPE":0,"CLASSIFICATION_TYPE":"U","NORAD_CAT_ID":62012,"ELEMENT_SET_NO":999,"REV_AT_EPOCH":7702,"BSTAR":0.0025583229,"MEAN_MOTION_DOT":0.00323642,"MEAN_MOTION_DDOT":0},{"OBJECT_NAME":"STARLINK-11377 [DTC]","OBJECT_ID":"2024-213F","EPOCH":"2026-03-23T05:33:28.344384","MEAN_MOTION":15.69799393,"ECCENTRICITY":0.00013565,"INCLINATION":53.1566,"RA_OF_ASC_NODE":334.3946,"ARG_OF_PERICENTER":58.8605,"MEAN_ANOMALY":301.2546,"EPHEMERIS_TYPE":0,"CLASSIFICATION_TYPE":"U","NORAD_CAT_ID":62013,"ELEMENT_SET_NO":999,"REV_AT_EPOCH":7704,"BSTAR":0.0015091406,"MEAN_MOTION_DOT":0.00187116,"MEAN_MOTION_DDOT":0},{"OBJECT_NAME":"STARLINK-11385 [DTC]","OBJECT_ID":"2024-213G","EPOCH":"2026-03-23T06:08:48.590880","MEAN_MOTION":15.6988633,"ECCENTRICITY":0.00018825,"INCLINATION":53.1571,"RA_OF_ASC_NODE":334.5529,"ARG_OF_PERICENTER":51.3618,"MEAN_ANOMALY":308.7568,"EPHEMERIS_TYPE":0,"CLASSIFICATION_TYPE":"U","NORAD_CAT_ID":62014,"ELEMENT_SET_NO":999,"REV_AT_EPOCH":7704,"BSTAR":0.0022642356,"MEAN_MOTION_DOT":0.00285447,"MEAN_MOTION_DDOT":0}]
